{"type": "FeatureCollection", "features": [ {"type": "Feature", "properties": {"norad_id": 32152, "name": "FENGYUN 1C DEB", "group": "fengyun-1c-debris", "lat": 0.21332092239906356, "lon": -38.435720584438705, "alt_km": 677.1087867628348, "timestamp": "2025-12-06T16:45:43.007762+00:00", "meta": {"OBJECT_NAME": "FENGYUN 1C DEB", "OBJECT_ID": "1999-025CSW", "EPOCH": "2025-12-04T06:13:51.350304", "MEAN_MOTION": 14.56482444, "ECCENTRICITY": 0.0055324, "INCLINATION": 98.7599, "RA_OF_ASC_NODE": 138.9704, "ARG_OF_PERICENTER": 227.1779, "MEAN_ANOMALY": 132.4761, "EPHEMERIS_TYPE": 0, "CLASSIFICATION_TYPE": "U", "NORAD_CAT_ID": 32152, "ELEMENT_SET_NO": 999, "REV_AT_EPOCH": 62489, "BSTAR": 0.0046274, "MEAN_MOTION_DOT": 0.00021013, "MEAN_MOTION_DDOT": 0}, "tle": {"line1": "1 32152U 99025CSW 25338.25962211  .00021013  00000+0  46274-2 0  9998", "line2": "2 32152  98.7599 138.9704 0055324 227.1779 132.4761 14.56482444624893"}}, "geometry": {"type": "Point", "coordinates": [-38.435720584438705, 0.21332092239906356]}}, {"type": "Feature", "properties": {"norad_id": 32153, "name": "FENGYUN 1C DEB", "group": "fengyun-1c-debris", "lat": -35.053704182076274, "lon": -170.39131276273037, "alt_km": 720.2923242379147, "timestamp": "2025-12-06T16:45:43.007772+00:00", "meta": {"OBJECT_NAME": "FENGYUN 1C DEB", "OBJECT_ID": "1999-025CSX", "EPOCH": "2025-12-06T06:58:52.077792", "MEAN_MOTION": 14.48689639, "ECCENTRICITY": 0.02070416, "INCLINATION": 98.7699, "RA_OF_ASC_NODE": 182.9675, "ARG_OF_PERICENTER": 240.8055, "MEAN_ANOMALY": 117.2286, "EPHEMERIS_TYPE": 0, "CLASSIFICATION_TYPE": "U", "NORAD_CAT_ID": 32153, "ELEMENT_SET_NO": 999, "REV_AT_EPOCH": 97130, "BSTAR": 0.00058992687, "MEAN_MOTION_DOT": 2.858e-05, "MEAN_MOTION_DDOT": 0}, "tle": {"line1": "1 32153U 99025CSX 25340.29088053  .00002858  00000+0  58993-3 0  9997", "line2": "2 32153  98.7699 182.9675 0207041 240.8055 117.2286 14.48689639971305"}}, "geometry": {"type": "Point", "coordinates": [-170.39131276273037, -35.053704182076274]}}, {"type": "Feature", "properties": {"norad_id": 32155, "name": "FENGYUN 1C DEB", "group": "fengyun-1c-debris", "lat": -71.58721107619675, "lon": -61.623246305102526, "alt_km": 745.4267871347884, "timestamp": "2025-12-06T16:45:43.007783+00:00", "meta": {"OBJECT_NAME": "FENGYUN 1C DEB", "OBJECT_ID": "1999-025CSZ", "EPOCH": "2025-12-04T13:09:10.027872", "MEAN_MOTION": 14.32912866, "ECCENTRICITY": 0.0069286, "INCLINATION": 98.9526, "RA_OF_ASC_NODE": 267.8922, "ARG_OF_PERICENTER": 264.2615, "MEAN_ANOMALY": 95.0665, "EPHEMERIS_TYPE": 0, "CLASSIFICATION_TYPE": "U", "NORAD_CAT_ID": 32155, "ELEMENT_SET_NO": 999, "REV_AT_EPOCH": 70105, "BSTAR": 0.001161, "MEAN_MOTION_DOT": 3.211e-05, "MEAN_MOTION_DDOT": 0}, "tle": {"line1": "1 32155U 99025CSZ 25338.54803273  .00003211  00000+0  11610-2 0  9991", "line2": "2 32155  98.9526 267.8922 0069286 264.2615  95.0665 14.32912866701056"}}, "geometry": {"type": "Point", "coordinates": [-61.623246305102526, -71.58721107619675]}}, {"type": "Feature", "properties": {"norad_id": 32156, "name": "FENGYUN 1C DEB", "group": "fengyun-1c-debris", "lat": -45.36576862665375, "lon": 159.412286783423, "alt_km": 821.7951665421333, "timestamp": "2025-12-06T16:45:43.007793+00:00", "meta": {"OBJECT_NAME": "FENGYUN 1C DEB", "OBJECT_ID": "1999-025CTA", "EPOCH": "2025-12-06T05:14:19.057632", "MEAN_MOTION": 14.31934388, "ECCENTRICITY": 0.0082381, "INCLINATION": 99.3545, "RA_OF_ASC_NODE": 149.2841, "ARG_OF_PERICENTER": 76.0977, "MEAN_ANOMALY": 284.935, "EPHEMERIS_TYPE": 0, "CLASSIFICATION_TYPE": "U", "NORAD_CAT_ID": 32156, "ELEMENT_SET_NO": 999, "REV_AT_EPOCH": 64727, "BSTAR": 0.00056337744, "MEAN_MOTION_DOT": 1.518e-05, "MEAN_MOTION_DDOT": 0}, "tle": {"line1": "1 32156U 99025CTA 25340.21827613  .00001518  00000+0  56338-3 0  9998", "line2": "2 32156  99.3545 149.2841 0082381  76.0977 284.9350 14.31934388647272"}}, "geometry": {"type": "Point", "coordinates": [159.412286783423, -45.36576862665375]}}, {"type": "Feature", "properties": {"norad_id": 32160, "name": "FENGYUN 1C DEB", "group": "fengyun-1c-debris", "lat": -1.1522563311947354, "lon": 137.84638390447745, "alt_km": 713.5833117300945, "timestamp": "2025-12-06T16:45:43.007803+00:00", "meta": {"OBJECT_NAME": "FENGYUN 1C DEB", "OBJECT_ID": "1999-025CTE", "EPOCH": "2025-12-04T06:18:04.586976", "MEAN_MOTION": 14.37533289, "ECCENTRICITY": 0.0082414, "INCLINATION": 98.8812, "RA_OF_ASC_NODE": 135.1511, "ARG_OF_PERICENTER": 23.9168, "MEAN_ANOMALY": 336.5812, "EPHEMERIS_TYPE": 0, "CLASSIFICATION_TYPE": "U", "NORAD_CAT_ID": 32160, "ELEMENT_SET_NO": 999, "REV_AT_EPOCH": 95765, "BSTAR": 0.00077758, "MEAN_MOTION_DOT": 2.375e-05, "MEAN_MOTION_DDOT": 0}, "tle": {"line1": "1 32160U 99025CTE 25338.26255309  .00002375  00000+0  77758-3 0  9993", "line2": "2 32160  98.8812 135.1511 0082414  23.9168 336.5812 14.37533289957650"}}, "geometry": {"type": "Point", "coordinates": [137.84638390447745, -1.1522563311947354]}}, {"type": "Feature", "properties": {"norad_id": 32161, "name": "FENGYUN 1C DEB", "group": "fengyun-1c-debris", "lat": -31.16622870380039, "lon": -99.87469688364851, "alt_km": 884.6716443607229, "timestamp": "2025-12-06T16:45:43.007814+00:00", "meta": {"OBJECT_NAME": "FENGYUN 1C DEB", "OBJECT_ID": "1999-025CTF", "EPOCH": "2025-12-03T02:05:41.290080", "MEAN_MOTION": 14.01850718, "ECCENTRICITY": 0.01352524, "INCLINATION": 98.8291, "RA_OF_ASC_NODE": 82.0226, "ARG_OF_PERICENTER": 307.2576, "MEAN_ANOMALY": 51.6317, "EPHEMERIS_TYPE": 0, "CLASSIFICATION_TYPE": "U", "NORAD_CAT_ID": 32161, "ELEMENT_SET_NO": 999, "REV_AT_EPOCH": 63294, "BSTAR": 0.00046609948, "MEAN_MOTION_DOT": 7.24e-06, "MEAN_MOTION_DDOT": 0}, "tle": {"line1": "1 32161U 99025CTF 25337.08728345  .00000724  00000+0  46610-3 0  9997", "line2": "2 32161  98.8291  82.0226 0135252 307.2576  51.6317 14.01850718632942"}}, "geometry": {"type": "Point", "coordinates": [-99.87469688364851, -31.16622870380039]}}, {"type": "Feature", "properties": {"norad_id": 32162, "name": "FENGYUN 1C DEB", "group": "fengyun-1c-debris", "lat": 4.225642699862861, "lon": 24.271979762709286, "alt_km": 723.1038058664526, "timestamp": "2025-12-06T16:45:43.007824+00:00", "meta": {"OBJECT_NAME": "FENGYUN 1C DEB", "OBJECT_ID": "1999-025CTG", "EPOCH": "2025-12-06T01:57:30.195936", "MEAN_MOTION": 14.61892717, "ECCENTRICITY": 0.00478561, "INCLINATION": 99.466, "RA_OF_ASC_NODE": 24.2728, "ARG_OF_PERICENTER": 190.8425, "MEAN_ANOMALY": 169.1745, "EPHEMERIS_TYPE": 0, "CLASSIFICATION_TYPE": "U", "NORAD_CAT_ID": 32162, "ELEMENT_SET_NO": 999, "REV_AT_EPOCH": 94821, "BSTAR": 0.0023629452, "MEAN_MOTION_DOT": 0.00011972, "MEAN_MOTION_DDOT": 0}, "tle": {"line1": "1 32162U 99025CTG 25340.08159949  .00011972  00000+0  23629-2 0  9991", "line2": "2 32162  99.4660  24.2728 0047856 190.8425 169.1745 14.61892717948217"}}, "geometry": {"type": "Point", "coordinates": [24.271979762709286, 4.225642699862861]}}, {"type": "Feature", "properties": {"norad_id": 32167, "name": "FENGYUN 1C DEB", "group": "fengyun-1c-debris", "lat": -4.302994866592551, "lon": 154.7291904347764, "alt_km": 829.278545753762, "timestamp": "2025-12-06T16:45:43.007834+00:00", "meta": {"OBJECT_NAME": "FENGYUN 1C DEB", "OBJECT_ID": "1999-025CTM", "EPOCH": "2025-12-02T04:31:04.305792", "MEAN_MOTION": 14.30943689, "ECCENTRICITY": 0.01648923, "INCLINATION": 98.4751, "RA_OF_ASC_NODE": 330.9721, "ARG_OF_PERICENTER": 88.2816, "MEAN_ANOMALY": 273.7246, "EPHEMERIS_TYPE": 0, "CLASSIFICATION_TYPE": "U", "NORAD_CAT_ID": 32167, "ELEMENT_SET_NO": 999, "REV_AT_EPOCH": 62524, "BSTAR": 0.00035916746, "MEAN_MOTION_DOT": 1.051e-05, "MEAN_MOTION_DDOT": 0}, "tle": {"line1": "1 32167U 99025CTM 25336.18824428  .00001051  00000+0  35917-3 0  9994", "line2": "2 32167  98.4751 330.9721 0164892  88.2816 273.7246 14.30943689625240"}}, "geometry": {"type": "Point", "coordinates": [154.7291904347764, -4.302994866592551]}}, {"type": "Feature", "properties": {"norad_id": 32168, "name": "FENGYUN 1C DEB", "group": "fengyun-1c-debris", "lat": -29.707854973282934, "lon": 55.05061719922525, "alt_km": 904.4616261044112, "timestamp": "2025-12-06T16:45:43.007845+00:00", "meta": {"OBJECT_NAME": "FENGYUN 1C DEB", "OBJECT_ID": "1999-025CTN", "EPOCH": "2025-12-03T10:56:49.879968", "MEAN_MOTION": 13.85965652, "ECCENTRICITY": 0.02426884, "INCLINATION": 101.6572, "RA_OF_ASC_NODE": 44.2578, "ARG_OF_PERICENTER": 260.6008, "MEAN_ANOMALY": 96.7629, "EPHEMERIS_TYPE": 0, "CLASSIFICATION_TYPE": "U", "NORAD_CAT_ID": 32168, "ELEMENT_SET_NO": 999, "REV_AT_EPOCH": 63351, "BSTAR": 0.005492601, "MEAN_MOTION_DOT": 7.899e-05, "MEAN_MOTION_DDOT": 0}, "tle": {"line1": "1 32168U 99025CTN 25337.45613287  .00007899  00000+0  54926-2 0  9991", "line2": "2 32168 101.6572  44.2578 0242688 260.6008  96.7629 13.85965652633513"}}, "geometry": {"type": "Point", "coordinates": [55.05061719922525, -29.707854973282934]}}, {"type": "Feature", "properties": {"norad_id": 32169, "name": "FENGYUN 1C DEB", "group": "fengyun-1c-debris", "lat": -69.31649066731194, "lon": -167.39879437520645, "alt_km": 697.2966970161433, "timestamp": "2025-12-06T16:45:43.007855+00:00", "meta": {"OBJECT_NAME": "FENGYUN 1C DEB", "OBJECT_ID": "1999-025CTP", "EPOCH": "2025-12-05T11:37:37.993728", "MEAN_MOTION": 14.67195224, "ECCENTRICITY": 0.00338641, "INCLINATION": 98.5573, "RA_OF_ASC_NODE": 167.8293, "ARG_OF_PERICENTER": 144.0764, "MEAN_ANOMALY": 216.2725, "EPHEMERIS_TYPE": 0, "CLASSIFICATION_TYPE": "U", "NORAD_CAT_ID": 32169, "ELEMENT_SET_NO": 999, "REV_AT_EPOCH": 96512, "BSTAR": 0.0076875344, "MEAN_MOTION_DOT": 0.00043856, "MEAN_MOTION_DDOT": 0}, "tle": {"line1": "1 32169U 99025CTP 25339.48446752  .00043856  00000+0  76875-2 0  9998", "line2": "2 32169  98.5573 167.8293 0033864 144.0764 216.2725 14.67195224965125"}}, "geometry": {"type": "Point", "coordinates": [-167.39879437520645, -69.31649066731194]}}]}